<?xml version='1.0' encoding='UTF-8'?>
<kml xmlns="http://www.opengis.net/kml/2.2"><Document><Placemark><name>10/08/24</name><styleUrl>#regularStyle2</styleUrl><Point><coordinates>-51.067494582384825,-29.676547273993492</coordinates></Point></Placemark><Placemark><name>11/08/24</name><styleUrl>#regularStyle2</styleUrl><Point><coordinates>-51.09404543414712,-29.675118327140808</coordinates></Point></Placemark><Placemark><name>12/08/24</name><styleUrl>#regularStyle2</styleUrl><Point><coordinates>-51.661057,-30.1018199</coordinates></Point></Placemark><Placemark><name>13/08/24</name><styleUrl>#regularStyle2</styleUrl><Point><coordinates>-54.475916,-30.2673453</coordinates></Point></Placemark><Placemark><name>14/08/24</name><styleUrl>#regularStyle2</styleUrl><Point><coordinates>-57.0403197,-29.7753625</coordinates></Point></Placemark><Placemark><name>15/08/24</name><styleUrl>#regularStyle2</styleUrl><Point><coordinates>-57.4210484,-29.8188746</coordinates></Point></Placemark><Placemark><name>16/08/24</name><styleUrl>#regularStyle2</styleUrl><Point><coordinates>-59.2252105,-31.2399829</coordinates></Point></Placemark><Placemark><name>17/08/24</name><styleUrl>#regularStyle2</styleUrl><Point><coordinates>-61.1396051,-31.6104405</coordinates></Point></Placemark><Placemark><name>18/08/24</name><styleUrl>#regularStyle2</styleUrl><Point><coordinates>-64.04650334268808,-31.380103253759444</coordinates></Point></Placemark><Placemark><name>19/08/24</name><styleUrl>#regularStyle2</styleUrl><Point><coordinates>-65.007223,-31.7674005</coordinates></Point></Placemark><Placemark><name>20/08/24</name><styleUrl>#regularStyle2</styleUrl><Point><coordinates>-65.1068991,-31.9541297</coordinates></Point></Placemark><Placemark><name>21/08/24</name><styleUrl>#regularStyle2</styleUrl><Point><coordinates>-65.73971861042082,-32.41797053720802</coordinates></Point></Placemark><Placemark><name>22/08/24</name><styleUrl>#regularStyle2</styleUrl><Point><coordinates>-65.73976085521281,-32.41804760880768</coordinates></Point></Placemark><Placemark><name>23/08/24</name><styleUrl>#regularStyle2</styleUrl><Point><coordinates>-65.7397308,-32.4179755</coordinates></Point></Placemark><Placemark><name>24/08/24</name><styleUrl>#regularStyle2</styleUrl><Point><coordinates>-65.6354552,-33.0607259</coordinates></Point></Placemark><Placemark><name>25/08/24</name><styleUrl>#regularStyle2</styleUrl><Point><coordinates>-65.66114908084273,-33.0464095948264</coordinates></Point></Placemark><Placemark><name>26/08/24</name><styleUrl>#regularStyle2</styleUrl><Point><coordinates>-67.88119395263493,-34.59374538157135</coordinates></Point></Placemark><Placemark><name>27/08/24</name><styleUrl>#regularStyle2</styleUrl><Point><coordinates>-68.3481077,-34.6108658</coordinates></Point></Placemark><Placemark><name>28/08/24</name><styleUrl>#regularStyle2</styleUrl><Point><coordinates>-68.35017208009958,-34.612529813311994</coordinates></Point></Placemark><Placemark><name>29/08/24</name><styleUrl>#regularStyle2</styleUrl><Point><coordinates>-68.3485934,-34.6107195</coordinates></Point></Placemark><Placemark><name>30/08/24</name><styleUrl>#regularStyle2</styleUrl><Point><coordinates>-68.5448229,-34.5831599</coordinates></Point></Placemark><Placemark><name>31/08/24</name><styleUrl>#regularStyle2</styleUrl><Point><coordinates>-68.6384887,-34.5951824</coordinates></Point></Placemark><Placemark><name>01/09/24</name><styleUrl>#regularStyle2</styleUrl><Point><coordinates>-68.6972206,-35.029884</coordinates></Point></Placemark><Placemark><name>02/09/24</name><styleUrl>#regularStyle2</styleUrl><Point><coordinates>-68.68260900489986,-35.03372472245246</coordinates></Point></Placemark><Placemark><name>03/09/24</name><styleUrl>#regularStyle2</styleUrl><Point><coordinates>-68.3780774,-34.6526286</coordinates></Point></Placemark><Placemark><name>04/09/24</name><styleUrl>#regularStyle2</styleUrl><Point><coordinates>-68.6047535,-34.8944593</coordinates></Point></Placemark><Placemark><name>05/09/24</name><styleUrl>#regularStyle2</styleUrl><Point><coordinates>-69.603533,-35.0833422</coordinates></Point></Placemark><Placemark><name>06/09/24</name><styleUrl>#regularStyle2</styleUrl><Point><coordinates>-70.07795004174113,-35.130424769595265</coordinates></Point></Placemark><Placemark><name>07/09/24</name><styleUrl>#regularStyle2</styleUrl><Point><coordinates>-69.5883258,-35.4688761</coordinates></Point></Placemark><Placemark><name>08/09/24</name><styleUrl>#regularStyle2</styleUrl><Point><coordinates>-69.5905833,-35.4657309</coordinates></Point></Placemark><Placemark><name>09/09/24</name><styleUrl>#regularStyle2</styleUrl><Point><coordinates>-69.5918991,-35.465994</coordinates></Point></Placemark><Placemark><name>10/09/24</name><styleUrl>#regularStyle2</styleUrl><Point><coordinates>-69.18398637324572,-33.324523572809994</coordinates></Point></Placemark><Placemark><name>11/09/24</name><styleUrl>#regularStyle2</styleUrl><Point><coordinates>-69.1839259,-33.3245044</coordinates></Point></Placemark><Placemark><name>12/09/24</name><styleUrl>#regularStyle2</styleUrl><Point><coordinates>-69.18403448536992,-33.32449633162469</coordinates></Point></Placemark><Placemark><name>13/09/24</name><styleUrl>#regularStyle2</styleUrl><Point><coordinates>-66.9263912,-33.430425</coordinates></Point></Placemark><Placemark><name>14/09/24</name><styleUrl>#regularStyle2</styleUrl><Point><coordinates>-63.983571929857135,-32.8837083466351</coordinates></Point></Placemark><Placemark><name>15/09/24</name><styleUrl>#regularStyle2</styleUrl><Point><coordinates>-62.3639338,-31.6311339</coordinates></Point></Placemark><Placemark><name>16/09/24</name><styleUrl>#regularStyle2</styleUrl><Point><coordinates>-58.9163696,-31.8106032</coordinates></Point></Placemark><Placemark><name>17/09/24</name><styleUrl>#regularStyle2</styleUrl><Point><coordinates>-57.5759756,-29.9071856</coordinates></Point></Placemark><Placemark><name>18/09/24</name><styleUrl>#regularStyle2</styleUrl><Point><coordinates>-55.4801728,-29.5841017</coordinates></Point></Placemark><Placemark><name>19/09/24</name><styleUrl>#regularStyle2</styleUrl><Point><coordinates>-53.8372433,-29.6986197</coordinates></Point></Placemark><Placemark><name>Trajeto</name><styleUrl>#regularStyle2</styleUrl><LineString><tessellate>1</tessellate><altitudeMode>clampToGround</altitudeMode><coordinates>-51.067494582384825,-29.676547273993492 -51.0674197,-29.6764651 -51.09404543414712,-29.675118327140808 -51.1015594,-29.6726948 -51.106456,-29.6681695 -51.1248021,-29.6620037 -51.1468482,-29.701753 -51.1497426,-29.7325605 -51.1513069,-29.7482999 -51.15194317884743,-29.757354059256613 -51.1655574,-29.799597 -51.169567722827196,-29.81575023382902 -51.2277238,-29.8672584 -51.202535,-29.9576322 -51.2001338,-29.9709861 -51.204912615939975,-29.98693120200187 -51.2691683,-29.9909028 -51.3487224,-30.0447018 -51.46979031153023,-30.055738245137036 -51.4767046,-30.0561923 -51.5916112,-30.0756167 -51.6577524,-30.1005464 -51.6572008,-30.1022044 -51.658289255574346,-30.100395726040006 -51.6572008,-30.1022044 -51.6581229,-30.1004337 -51.661057,-30.1018199 -51.82578264735639,-30.11284012813121 -52.21158471889794,-30.17015059478581 -52.3288831,-30.175527 -52.4398806,-30.2017282 -52.4584595952183,-30.20308024249971 -52.567059,-30.2156093 -52.6922454,-30.2306806 -52.76075134053826,-30.2454527746886 -52.800447,-30.2541866 -52.8017909,-30.2552961 -52.812014389783144,-30.256464583799243 -52.912655314430594,-30.27122079860419 -52.9904306,-30.2578421 -53.1135939,-30.276484 -53.12467563897371,-30.281231347471476 -53.2426058,-30.3240657 -53.270843205973506,-30.337678268551826 -53.329568998888135,-30.34718376584351 -53.50687684491277,-30.36400461103767 -53.6407264,-30.3642303 -53.77892257645726,-30.37765215151012 -54.0135989,-30.3425309 -54.02800885029137,-30.34922224469483 -54.1270733,-30.3489903 -54.2449829,-30.3646703 -54.278115620836616,-30.35773008596152 -54.3176891,-30.3584949 -54.3310276,-30.3533189 -54.3322953,-30.3542668 -54.475916,-30.2673453 -54.5442698802799,-30.261234096251428 -54.67369736172259,-30.228088991716504 -54.8974911,-30.2414052 -54.91843460127711,-30.242585954256356 -55.14661615714431,-30.15931530855596 -55.2421636,-30.133511 -55.243686055764556,-30.132122905924916 -55.4152442,-29.9897182 -55.732749,-29.8165125 -55.7482693,-29.8125415 -55.7707084,-29.8059356 -55.77648944221437,-29.805020936764777 -55.8537887,-29.809978 -55.9121074,-29.8431773 -56.084506111219525,-29.943954711779952 -56.1306192,-29.9619539 -56.2411379,-30.0192383 -56.34096887893975,-30.008452283218503 -56.3705653,-30.0131645 -56.4952158,-30.002126 -56.60418402403593,-29.950658809393644 -56.70743616297841,-29.898354853503406 -56.7268004,-29.8925426 -56.852831,-29.8704655 -56.856592297554016,-29.870068025775254 -56.9736155,-29.8302146 -57.0402361,-29.7753903 -57.03920588828623,-29.776682727970183 -57.0377204,-29.7761607 -57.058856,-29.7583404 -57.0581741,-29.7644829 -57.0385555,-29.7767499 -57.0403197,-29.7753625 -57.047565998509526,-29.77369315456599 -57.0550845,-29.7718807 -57.0826101,-29.7475435 -57.084081,-29.7467445 -57.09792187437415,-29.737976524047554 -57.10164478048682,-29.733751583844423 -57.0931009,-29.7233885 -57.08779687061906,-29.72014293540269 -57.0835019,-29.7221052 -57.0857283,-29.7234427 -57.0890727,-29.7151151 -57.086609825491905,-29.715485740453005 -57.0891567,-29.7152717 -57.113015,-29.7233445 -57.1407682,-29.7218799 -57.19382341951132,-29.72142511513084 -57.2526345,-29.7259541 -57.3633066,-29.7634517 -57.4427778,-29.8146155 -57.428602539002895,-29.817600664682686 -57.425276432186365,-29.818776394240558 -57.41940884850919,-29.820758840069175 -57.4210484,-29.8188746 -57.427845569327474,-29.818117450922728 -57.4341318,-29.8235907 -57.432605316862464,-29.820127431303263 -57.4436431,-29.8141036 -57.5080374,-29.8625946 -57.6861294,-29.9718465 -57.742900773882866,-30.01897546928376 -57.7810312,-30.0472716 -57.9057807,-30.0597445 -58.00132934935391,-30.075271516107023 -58.0200143,-30.0801112 -58.030868181958795,-30.08403789717704 -58.0688584,-30.1170375 -58.1374714,-30.1757607 -58.2074852,-30.2429789 -58.2743374,-30.3053548 -58.30470412038267,-30.347680561244488 -58.3056732,-30.3414373 -58.3085788,-30.3397966 -58.374413726851344,-30.421614018268883 -58.4627963,-30.5915138 -58.52199607528746,-30.647372785024345 -58.5812026,-30.700231 -58.6287024,-30.780482 -58.66975293494761,-30.825020601041615 -58.7052028,-30.8632282 -58.7805652,-30.946841 -58.849333953112364,-30.983891738578677 -58.8804044,-30.9988087 -58.9634421,-31.0386227 -58.96553370170295,-31.039612954482436 -58.9986863,-31.0550384 -59.0942571,-31.1264676 -59.15073738433421,-31.199317420832813 -59.1640496,-31.212359 -59.22479,-31.2388261 -59.224562,-31.2416483 -59.22408,-31.2391094 -59.2214918,-31.2343224 -59.22512057237327,-31.23987158294767 -59.2216782,-31.2388676 -59.224981935694814,-31.239834115840495 -59.2240187,-31.2393462 -59.2252105,-31.2399829 -59.2240187,-31.2393462 -59.2252134,-31.2399091 -59.22523045912385,-31.23988868203014 -59.225469175726175,-31.2396800564602 -59.2188529,-31.2420426 -59.225151585415006,-31.23989496845752 -59.220269210636616,-31.23725835699588 -59.22570780850947,-31.245069494470954 -59.21603,-31.2504281 -59.2951859,-31.3088953 -59.37191049568355,-31.35631436482072 -59.3997252,-31.3741931 -59.5075198,-31.4348183 -59.60590875707567,-31.492650001309812 -59.6154378,-31.498335 -59.7343425,-31.5457675 -59.86618864350021,-31.579011515714228 -59.92087033577263,-31.571932453662157 -60.002762,-31.5824663 -60.118711246177554,-31.609582412056625 -60.2183271,-31.6731051 -60.3109626,-31.7329888 -60.4040624,-31.7483168 -60.4427466,-31.7386935 -60.4443138,-31.7379905 -60.4427442,-31.7385528 -60.47278420999646,-31.728175696916878 -60.476251,-31.7289986 -60.501727843657136,-31.71251176390797 -60.5057924,-31.6906094 -60.5395667,-31.6857501 -60.5531469,-31.6822868 -60.6129804,-31.6533177 -60.6880873,-31.6439502 -60.70705974474549,-31.65923412423581 -60.717447,-31.6683808 -60.7545796,-31.6226476 -60.815281346440315,-31.664754445664585 -60.8236599,-31.663379 -60.9467242,-31.641002 -61.0408108,-31.6248777 -61.04974170215428,-31.62383085116744 -61.1399393,-31.6113952 -61.13961950875819,-31.61067616660148 -61.1396051,-31.6104405 -61.1410628,-31.608653 -61.14014,-31.6105384 -61.1538904,-31.6078723 -61.176895927637815,-31.60395140759647 -61.2756113,-31.5911781 -61.3749732,-31.5740335 -61.5846742,-31.5224629 -61.73804573714733,-31.483086878433824 -61.94228648208082,-31.44341025967151 -62.1293812,-31.448588 -62.162395594641566,-31.41794729512185 -62.2053723,-31.4108922 -62.3059923,-31.4076869 -62.37791955471039,-31.40649979468435 -62.4194121,-31.406268 -62.4940985,-31.4061176 -62.5332063,-31.4449688 -62.6685085,-31.4448942 -62.8048708,-31.4470121 -62.81686255708337,-31.450073034502566 -62.8540647,-31.4604141 -62.8566012,-31.4617168 -63.99972511455417,-31.36584203224629 -64.04650334268808,-31.380103253759444 -64.1283174,-31.393436 -64.13922655396163,-31.36333777103573 -64.2268813,-31.3501803 -64.2827052,-31.4318195 -64.31534752249718,-31.436644135974348 -64.34207757934928,-31.43852868117392 -64.3683978,-31.4402404 -64.4406586,-31.4977983 -64.50281616300344,-31.533159068785608 -64.5449865,-31.5377271 -64.546031,-31.5387459 -64.6218739,-31.5852045 -64.66122658923268,-31.575858537107706 -64.663402,-31.5764758 -64.6618762,-31.5757396 -64.6607083,-31.5768024 -64.6727484,-31.6249199 -64.70491365529597,-31.597354346886277 -64.7102998,-31.6012496 -64.713701,-31.5982665 -64.71480824053288,-31.60885532386601 -64.7397538,-31.6114071 -64.70849071629345,-31.62433309480548 -64.7112492,-31.6248922 -64.7086296,-31.6248113 -64.7096612,-31.6233069 -64.70872750505805,-31.62118242122233 -64.749086,-31.6107868 -64.90015676245093,-31.614429038017988 -64.9004312,-31.6653009 -64.912781,-31.7574319 -64.90916906856,-31.787816248834133 -64.9197732,-31.7652683 -64.9775932,-31.751372 -65.0062945,-31.7668427 -65.00681488774717,-31.76860630977899 -65.0049042,-31.7670817 -65.0070774,-31.7667472 -65.00728511251509,-31.76769025158137 -65.0095773,-31.766486 -65.00706609338522,-31.767615024000406 -65.007223,-31.7674005 -65.0072035,-31.767455 -65.0095773,-31.766486 -65.00738829374313,-31.76760597154498 -65.00732350163162,-31.76749822217971 -65.00730858184397,-31.767617538571358 -65.00724957324564,-31.767617915757 -65.0053676,-31.7435615 -65.0047691,-31.7457994 -65.00607803463936,-31.736042657867074 -65.002862,-31.7362992 -65.0046151,-31.7452383 -65.0029608,-31.7522984 -65.00265310518444,-31.754827927798033 -65.0002479,-31.7921309 -65.0029577,-31.7939281 -64.9797953,-31.8641008 -64.979409,-31.8627703 -64.97969691641629,-31.8727417755872 -65.0039452,-31.909458 -65.0575272,-31.9520334 -65.0775854755193,-31.959477751515806 -65.0982644,-31.9522017 -65.09829506278038,-31.952166887931526 -65.1068991,-31.9541297 -65.17446904443204,-31.947601810097694 -65.17689803615212,-31.94913343526423 -65.17505,-31.9477896 -65.19325649365783,-31.94780775345862 -65.2010419,-31.9462565 -65.2681698,-32.0042971 -65.270976,-32.0068361 -65.3412435,-32.0402646 -65.34843603149056,-32.043216400779784 -65.3664888907224,-32.05081928987056 -65.53147391416132,-32.131658219732344 -65.5493500828743,-32.13968514930457 -65.6347532,-32.1766867 -65.66372500732541,-32.18905296642333 -65.69339895620942,-32.21835777629167 -65.684984,-32.2435606 -65.6929188,-32.3547224 -65.680182,-32.4104167 -65.6783140450716,-32.41652750875801 -65.7176661,-32.4181765 -65.719645,-32.4074206 -65.7366445,-32.4076147 -65.73968835175037,-32.41815640591085 -65.7407106,-32.4200679 -65.73987057432532,-32.41808880586177 -65.73971861042082,-32.41797053720802 -65.73971391655505,-32.41797208786011 -65.73981248773634,-32.41794518195093 -65.7397532,-32.4179216 -65.7396902795881,-32.41789292078465 -65.739756077528,-32.41786785889417 -65.73976085521281,-32.41804760880768 -65.7397064,-32.4179436 -65.73981039226055,-32.41801512893289 -65.73990192264318,-32.41787867154926 -65.73972883634269,-32.41791861131787 -65.739766638726,-32.41807661019266 -65.7410133,-32.4189568 -65.7420302,-32.4200249 -65.7404609,-32.420569 -65.7393088,-32.4194257 -65.74063416570425,-32.42066783364862 -65.7397625,-32.4179706 -65.7397308,-32.4179755 -65.7252618,-32.4045542 -65.67481577396393,-32.42710224352777 -65.67143057473004,-32.433663555420935 -65.61686689965427,-32.781025003641844 -65.6183572858572,-32.78825426939875 -65.6218375,-32.795353 -65.6236691,-32.9033577 -65.6201585,-32.9185869 -65.62395455315709,-32.92141773272306 -65.623233,-33.0034904 -65.6220662780106,-33.01610025577247 -65.63532494008541,-33.06065962649882 -65.6354053,-33.0605716 -65.6353203,-33.0606573 -65.63539543189108,-33.060628487728536 -65.6354552,-33.0607259 -65.6354013,-33.0606246 -65.6353477,-33.0606987 -65.63536416739225,-33.06063297204673 -65.6331757362932,-33.058025781065226 -65.6540204,-33.0486794 -65.6568863,-33.0480912 -65.6598387,-33.0452947 -65.6606836,-33.0466418 -65.66075647249818,-33.04399732500315 -65.66099778749049,-33.046463783830404 -65.6611817702651,-33.046497353352606 -65.662742,-33.0391166 -65.6659078,-33.0362136 -65.63328931108117,-33.05251761339605 -65.6304221,-33.052827 -65.62395530752838,-33.05357377510518 -65.6605429,-33.0471511 -65.66114908084273,-33.0464095948264 -65.6424764636904,-33.051434168592095 -65.6364744,-33.060747 -65.64339679665864,-33.06444087065756 -66.0409392323345,-33.26519805472344 -66.1628365,-33.2683386 -66.20125276967883,-33.271421156823635 -66.2710557,-33.3033496 -66.30042945966125,-33.30935949459672 -66.3704783,-33.3488376 -66.4086028,-33.3929113 -66.4270733948797,-33.447195533663034 -66.5021268,-33.5444002 -66.5705014,-33.6497652 -66.640835,-33.7497846 -66.64419846609235,-33.75754932872951 -66.6445349,-33.7551179 -66.6444441,-33.7574746 -66.6413146,-33.7594946 -66.63718876428902,-33.759640362113714 -66.667858,-34.0279721 -66.66785932146013,-34.02797513175756 -66.68538998812437,-34.05935048125684 -66.7156078,-34.0879126 -66.8497355,-34.1279955 -66.9608089,-34.1766902 -66.96297104470432,-34.177666660398245 -66.9733363,-34.1822113 -67.1693621,-34.26757 -67.2502934653312,-34.30256187915802 -67.2919177,-34.3205981 -67.4127631,-34.3727523 -67.5398113,-34.4272988 -67.56054542027414,-34.436161033809185 -67.6648555,-34.480779 -67.7862496,-34.5324901 -67.8645587246865,-34.56991366110742 -67.87257769145072,-34.57681326661259 -67.87253360264003,-34.57996100652963 -67.8789157,-34.5962533 -67.8772936,-34.5932115 -67.8783701,-34.5955505 -67.8799377,-34.5965063 -67.88119395263493,-34.59374538157135 -67.8764212,-34.5915965 -67.87637712433934,-34.59152585361153 -67.8774686,-34.5904328 -67.9711945,-34.6266492 -68.0722182802856,-34.574229125864804 -68.3239346,-34.6190149 -68.34814206697047,-34.61322060786188 -68.3484862,-34.6118527 -68.349695,-34.6105105 -68.3484746,-34.6117238 -68.349707,-34.6104575 -68.3485382,-34.6119088 -68.3500301,-34.6103694 -68.348066,-34.6109296 -68.3490232,-34.6126612 -68.3481077,-34.6108658 -68.3500323,-34.6104007 -68.34837717935443,-34.6120467223227 -68.3486003,-34.6104072 -68.34861631505191,-34.61191550362855 -68.3176152,-34.6204892 -68.2911311276257,-34.6289271209389 -68.29114621505141,-34.6285306988284 -68.29112567938864,-34.62825141381472 -68.2965451,-34.6276196 -68.298344258219,-34.62676375173032 -68.3328778,-34.614953 -68.3485143,-34.6119491 -68.3485403,-34.6118369 -68.35017208009958,-34.612529813311994 -68.35183957591653,-34.61375973187387 -68.3555999,-34.6147417 -68.3572721388191,-34.61673606187105 -68.3568575,-34.6156424 -68.3569497,-34.6177186 -68.3516834,-34.6148622 -68.34843476302922,-34.61214629933238 -68.3492283616215,-34.61050717625767 -68.347438,-34.6114225 -68.3490247,-34.6126641 -68.3485934,-34.6107195 -68.3501778,-34.6103387 -68.3485307,-34.6118102 -68.3501173,-34.6103629 -68.34986094385386,-34.610132589004934 -68.3483521,-34.612046 -68.3610002,-34.6054251 -68.3662251,-34.603956 -68.37349539622664,-34.601504635065794 -68.4762398,-34.5751151 -68.54471571743488,-34.583170814439654 -68.5458725,-34.585221 -68.5457085,-34.5836372 -68.54391952045262,-34.58334666676819 -68.5386161,-34.5837218 -68.5408874,-34.5845181 -68.543331,-34.5844505 -68.54475863277912,-34.58325211890042 -68.5446379,-34.582869 -68.5448229,-34.5831599 -68.5434564,-34.5844625 -68.5452209,-34.584593 -68.5459533,-34.5876758 -68.5466978,-34.5885675 -68.5466978,-34.5885675 -68.5506496,-34.5880852 -68.56157893314958,-34.58830305375159 -68.5564673,-34.588417 -68.54879954829812,-34.58535744342953 -68.5446374,-34.5829348 -68.5498087,-34.5812808 -68.55984698049724,-34.59172856993973 -68.6081729,-34.5877827 -68.6137783,-34.6061579 -68.641397,-34.5969607 -68.6774302,-34.5717249 -68.68097981438041,-34.5701572811231 -68.6821419,-34.5697094 -68.6435171,-34.5951422 -68.6385044,-34.5952174 -68.6384887,-34.5951824 -68.6404815,-34.5974844 -68.63843637518585,-34.60031838621944 -68.640315849334,-34.601226188242435 -68.6050317,-34.5995812 -68.61181804910302,-34.60682010278106 -68.6082162,-34.6055373 -68.6042159,-34.5968513 -68.5821107,-34.5813093 -68.55996927246451,-34.59063632413745 -68.5492143,-34.6615769 -68.5656022,-34.717124 -68.5663363,-34.7184148 -68.58290165662766,-34.732085801661015 -68.6374416,-34.8097147 -68.66427191533148,-34.931160234846175 -68.6840127,-35.0249016 -68.6809817,-35.0434478 -68.6972206,-35.029884 -68.68094670586288,-35.043463236652315 -68.680969,-35.0434357 -68.68093203753233,-35.04343151114881 -68.6818751,-35.0422859 -68.6835649,-35.0379359 -68.6835404,-35.0362598 -68.6829411,-35.0349812 -68.6898405,-35.0284691 -68.6824622,-35.034802 -68.6819739,-35.0331766 -68.6824622,-35.034802 -68.6824622,-35.034802 -68.6824541,-35.0347992 -68.68261294439435,-35.03388196695596 -68.6810626,-35.0330861 -68.6824622,-35.034802 -68.68252300657332,-35.03382341936231 -68.6824339069426,-35.03392756450921 -68.68260900489986,-35.03372472245246 -68.6844379,-35.0238692 -68.60280272550881,-34.76051989942789 -68.55837763287127,-34.68689611181617 -68.4613685,-34.6305856 -68.3801842,-34.6516385 -68.3789916,-34.6525659 -68.3870174,-34.6955121 -68.3859893,-34.6937934 -68.3562407,-34.6625356 -68.2866138,-34.6296082 -68.28690488822758,-34.62923243176192 -68.2891073,-34.6296891 -68.3236907,-34.6295966 -68.33104189485312,-34.6271233772859 -68.3484254591167,-34.61205112282187 -68.3489646,-34.6106542 -68.3482542,-34.6118763 -68.352368,-34.6238412 -68.3540270011872,-34.625183385796845 -68.3802742,-34.6516164 -68.3780774,-34.6526286 -68.3796610403806,-34.65186160057783 -68.3780818,-34.6496025 -68.3802652,-34.6515347 -68.37531980127096,-34.65750270523131 -68.38957129977643,-34.703221335075796 -68.4554677,-34.8245309 -68.4547834,-34.8258065 -68.4554694,-34.8245757 -68.4870291,-34.819475 -68.5148519,-34.8308112 -68.5161193,-34.8280295 -68.5116433,-34.8452516 -68.50997784174979,-34.84743998385966 -68.5062512,-34.8527515 -68.5321412,-34.8897609 -68.54277513921261,-34.887023102492094 -68.5525367,-34.8781219 -68.5577314,-34.8785332 -68.56248451396823,-34.88237244542688 -68.5697895,-34.8821924 -68.572391,-34.882572 -68.58757238835096,-34.888881160877645 -68.5893149,-34.8910525 -68.5724698,-34.8825997 -68.56951022520661,-34.88225346431136 -68.6047535,-34.8944593 -68.6222464,-34.9099775 -68.62325088120997,-34.91182674653828 -68.6261486,-34.9153909 -68.62987987697124,-34.928579991683364 -68.6285051,-34.9411364 -68.61109997145832,-34.958655601367354 -68.6093743,-34.9596868 -68.6110794,-34.9704912 -68.62188865430653,-34.98911003116518 -68.6230401,-34.9936777 -68.6422826,-35.0039374 -68.6558938,-35.0066059 -68.6586865503341,-35.00808603130281 -68.6839738,-35.0249957 -68.66570957936347,-34.93525047786534 -68.7093224,-34.8725263 -68.71371424756944,-34.87672937102616 -68.786024,-34.9112194 -68.8105588,-34.9110811 -68.9156045,-34.9108391 -69.01243194937706,-34.93296946864575 -69.0479455,-34.9428448 -69.1828218,-34.9771771 -69.2236637044698,-34.9874926591292 -69.3181567,-35.0113516 -69.37183731235564,-35.02437449991703 -69.4490832,-35.0464991 -69.5680305,-35.0802236 -69.5826923,-35.0806259 -69.57717122510076,-35.08094945456833 -69.58276086486876,-35.0808074651286 -69.603533,-35.0833422 -69.59496173076332,-35.09531192947179 -69.6397558,-35.1940276 -69.7470221,-35.2104072 -69.77452497929335,-35.19896028097719 -69.8010075,-35.1850112 -69.8761862,-35.1668626 -69.9226061347872,-35.165792922489345 -69.9952338,-35.1846388 -70.0708641,-35.1790416 -70.07794593460858,-35.13956531882286 -70.07776647806168,-35.135697363875806 -70.07810619659722,-35.130112040787935 -70.07805976085365,-35.13006690423936 -70.07828565314412,-35.13006740715355 -70.07794710807502,-35.13027460779995 -70.0784116,-35.1376335 -70.07809069007635,-35.13008425477892 -70.07829369977117,-35.12845301069319 -70.0779026,-35.1305975 -70.07787376642227,-35.13028977904469 -70.0780295,-35.1302506 -70.0784116,-35.1376335 -70.07800511084497,-35.13021572493017 -70.0779402,-35.1303526 -70.0783767,-35.1428779 -70.07808172143996,-35.130292125977576 -70.07795004174113,-35.130424769595265 -70.0779308,-35.1302471 -70.0784116,-35.1376335 -70.0784116,-35.1376335 -70.07812723517418,-35.13024820480496 -70.07795414887369,-35.13022548984736 -70.0784116,-35.1376335 -70.07803645916283,-35.13032007962465 -70.0822144,-35.1470226 -70.07801977917552,-35.13021865859628 -70.07812178693712,-35.13030708767474 -70.07392748259008,-35.159765873104334 -70.0331685,-35.1958065 -69.9855436,-35.1821873 -69.902367,-35.1667324 -69.86332948319614,-35.16950979363173 -69.8682882,-35.1651576 -69.86987533047795,-35.16323040705174 -69.86818226985633,-35.16526532359421 -69.8122061,-35.1816342 -69.7838548,-35.1968801 -69.7595066,-35.2056631 -69.6521452,-35.2469131 -69.63473143056035,-35.27362367603928 -69.5820056,-35.346629 -69.58388387225568,-35.35923869814724 -69.5860978,-35.45347 -69.5883221,-35.4679962 -69.5904543,-35.4658917 -69.5883258,-35.4688761 -69.5917747,-35.5262034 -69.6298849,-35.5441534 -69.6296556852758,-35.54285069927573 -69.629612,-35.5428848 -69.6296189725399,-35.542902876622975 -69.6287199,-35.5388331 -69.62507212534547,-35.537289725616574 -69.5917787,-35.4829043 -69.58370215259492,-35.46899540349841 -69.584583,-35.4678184 -69.58368957974017,-35.46905470546335 -69.590859208256,-35.46676288358867 -69.5905441,-35.4669771 -69.58959915675223,-35.46634638682008 -69.5917168,-35.4659863 -69.59068008698523,-35.46713252551854 -69.591052,-35.4656145 -69.59078720770776,-35.46711831819266 -69.59071495570242,-35.46712732873857 -69.5905833,-35.4657309 -69.59074035286903,-35.46723000705242 -69.5924365,-35.4664512 -69.59073515608907,-35.46714329626411 -69.5895831,-35.460486 -69.5915075,-35.4659109 -69.5908189,-35.4671056 -69.5915943,-35.4658891 -69.5908076,-35.4671408 -69.58490889519453,-35.462734582833946 -69.58593098446727,-35.46127810142934 -69.5848593,-35.4633901 -69.5856048,-35.4687602 -69.5853014,-35.4695553 -69.5879625,-35.4701589 -69.5905995,-35.4655804 -69.59047405980527,-35.46725888270885 -69.5923033,-35.4669737 -69.5900557,-35.4666948 -69.5843979,-35.4719798 -69.59091461263597,-35.46658359467983 -69.5843947,-35.471979 -69.5900702,-35.4666912 -69.5915076,-35.4660097 -69.5907418616116,-35.467262151651084 -69.59071369841695,-35.467144469730556 -69.5893853,-35.470505 -69.5906882,-35.4672161 -69.59064546972513,-35.46724890824407 -69.5918991,-35.465994 -69.5898926,-35.4666015 -69.5875922,-35.4668609 -69.5837294,-35.4732034 -69.5813654,-35.4733628 -69.5810616,-35.4665725 -69.58822192624211,-35.47425768803805 -69.5913787,-35.4744949 -69.5847177,-35.4783686 -69.58603265695274,-35.461660525761545 -69.5860606,-35.4599417 -69.5879628,-35.4606604 -69.58617732860148,-35.44906872790307 -69.6142806764692,-35.30439850408584 -69.59461,-35.1277481 -69.5822749659419,-35.08111818227917 -69.568026,-35.0802595 -69.42641817033291,-35.00388074666262 -69.2613793,-34.8255056 -69.1908657,-34.7244346 -69.16298828087747,-34.69321573153138 -69.16003257036209,-34.67260915786028 -69.1641212,-34.6446943 -69.16871035471559,-34.64404606260359 -69.1819325,-34.637874 -69.1760616,-34.5635135 -69.17630150914192,-34.55228274688125 -69.1494831,-34.5274256 -69.1229359,-34.4311648 -69.10773728974164,-34.344164743088186 -69.1084226,-34.3133655 -69.1215595,-34.2047101 -69.1110111773014,-34.101242437027395 -69.1055877,-34.083869 -69.09108177758753,-34.02608735952526 -69.0810344,-33.9642312 -69.0782862,-33.9442841 -69.079183,-33.9419622 -69.0784254,-33.9431766 -69.18398637324572,-33.324523572809994 -69.1839259,-33.3245044 -69.1839549,-33.324586 -69.1839754,-33.3243908 -69.1839923,-33.3245747 -69.18392518535256,-33.32450127694756 -69.1838679,-33.324539 -69.18403448536992,-33.32449633162469 -69.1583393,-33.3089418 -69.07636424526572,-33.23350729420781 -68.8815261,-33.2061057 -68.87641998007894,-33.15838700160384 -68.8797583,-33.1060739 -68.8559826,-33.0068524 -68.81002130918205,-32.97360346186906 -68.7937966,-32.9731757 -68.7835711,-32.962454 -68.78487308509648,-32.96341198962182 -68.7680276,-32.9606087 -68.7454694,-32.9357957 -68.6449028,-33.0035652 -68.62522037699819,-33.0106314830482 -68.5113962,-33.0439066 -68.3855245,-33.0938543 -68.32320489920676,-33.124765302054584 -68.3183143,-33.1284086 -68.004055,-33.3072252 -67.90109845809639,-33.341500824317336 -67.8720053,-33.359324 -67.7398566,-33.4143121 -67.6003749,-33.4541491 -67.49021966010332,-33.43213078100234 -67.4816881,-33.4294017 -67.34944920055568,-33.41140191536397 -67.3360226,-33.4100726 -67.1893164,-33.3960343 -67.1428112,-33.4077681 -67.1230027,-33.4118278 -67.0104945,-33.4284561 -66.92604348063469,-33.43237867578864 -66.9246938,-33.4312817 -66.92709,-33.4326822 -66.924627,-33.4314067 -66.92471805028617,-33.43131840694696 -66.9263912,-33.430425 -66.9246741,-33.431233 -66.9248652,-33.4320081 -66.9274716,-33.4290318 -66.9276072,-33.4304975 -66.92476063035429,-33.43121405225247 -66.80149745196104,-33.4097388619557 -66.66332169435918,-33.382504591718316 -66.54099552892148,-33.35826865397394 -66.53526892885566,-33.35714832879603 -66.40247317962348,-33.33070560358465 -66.3423037,-33.3443535 -66.2425149,-33.3087845 -66.16990118287504,-33.33013127557933 -65.90568356215954,-33.440204691141844 -65.89287375099957,-33.446811265312135 -65.7888593,-33.5018373 -65.7923834,-33.5026422 -65.788688,-33.5017548 -65.56862066499889,-33.614203026518226 -65.4425289,-33.6490857 -65.44213154353201,-33.64837902132422 -65.4443449,-33.6478937 -65.4013197,-33.6459836 -65.2808006,-33.6175076 -65.19156536087394,-33.60518598463386 -65.1459819,-33.6013352 -65.0266601,-33.5722716 -64.9463186,-33.525494 -64.92973272688687,-33.51596573833376 -64.87744842655957,-33.486091210506856 -64.8272841,-33.4573357 -64.7268688,-33.3938378 -64.67098044231534,-33.36210102774203 -64.6474856,-33.3460056 -64.5891841,-33.3063972 -64.4918356,-33.2410145 -64.478743,-33.2350395 -64.4069812,-33.1843988 -64.3128831,-33.1465029 -64.30414108559489,-33.14394892193377 -64.29306733421981,-33.11177989002317 -64.2940398,-33.1089754 -64.2920588,-33.0919093 -64.28440379910171,-33.086180509999394 -64.2066979,-33.0340075 -64.1071228,-32.9669929 -64.03438730165362,-32.91801065672189 -64.0212101,-32.9150686 -64.0208603,-32.913734 -64.020937,-32.9137311 -63.983571929857135,-32.8837083466351 -63.8800309,-32.8145298 -63.7853229,-32.7505738 -63.63114709965885,-32.64432898722589 -63.509708,-32.5615317 -63.44128626398742,-32.51470151357353 -63.4090713,-32.4926161 -63.345628045499325,-32.44891820009798 -63.320996,-32.4322399 -63.2570129,-32.4086783 -63.2565217,-32.407389 -63.2638712,-32.421544 -63.26662031002343,-32.41856007836759 -63.2871031,-32.4125408 -63.258961010724306,-32.41075451485813 -63.2526693,-32.4216769 -63.2476482,-32.4244539 -63.2465803,-32.4255102 -63.2477758,-32.4244499 -63.24755139648914,-32.424293593503535 -63.24763865210116,-32.42452309001237 -63.2491424,-32.4223798 -63.25252245180309,-32.42373837623745 -63.2522505,-32.4178943 -63.254678109660745,-32.41129745263606 -63.2436957,-32.3966892 -63.224077289924026,-32.28170183021575 -63.1927103,-32.2417939 -63.1171452,-32.161384 -63.035693848505616,-32.10279823746532 -63.0292933,-32.1018667 -62.9570643,-32.046004 -62.8700383,-31.9831115 -62.7698321,-31.9104315 -62.7181216,-31.8702101 -62.7237543,-31.8701612 -62.7204860933125,-31.870342707261443 -62.70514192990959,-31.863688649609685 -62.6332739,-31.8119131 -62.4988928809762,-31.713292747735977 -62.37281137146056,-31.63709399756044 -62.3641721,-31.6307352 -62.3639338,-31.6311339 -61.91949273459613,-31.44835273269564 -61.8407636,-31.4622603 -61.660949662327766,-31.50792350526899 -61.228991551324725,-31.594970785081387 -61.1441968,-31.6196425 -60.96978614106774,-31.63733317516744 -60.7954739,-31.6681472 -60.7826248,-31.6707316 -60.7909716,-31.6505251 -60.7325056,-31.6622079 -60.71832401677966,-31.669864179566503 -60.6847362,-31.6409589 -60.6045985,-31.6586999 -60.5891689,-31.664303 -60.528224,-31.6869299 -60.4509203,-31.7379056 -60.44251489453018,-31.73887092154473 -60.4422426,-31.7390402 -60.4012161,-31.7499009 -60.3176481,-31.7839604 -60.25008240714669,-31.826115511357784 -60.2194806,-31.8323977 -60.0878099,-31.842587 -59.9892112,-31.8507132 -59.97206473723054,-31.849654410034418 -59.8697125,-31.848515 -59.73390963859856,-31.86857785563916 -59.60152141749859,-31.846394017338753 -59.3215984,-31.8402818 -59.241311978548765,-31.835548295639455 -59.1945911,-31.815959 -59.0847228,-31.8074704 -59.030210142955184,-31.807062649168074 -59.0294351,-31.8058429 -58.9163696,-31.8106032 -58.89078916981816,-31.810699682682753 -58.818,-31.8241007 -58.81498089060187,-31.824277443811297 -58.8247118,-31.8287574 -58.8225588,-31.8278346 -58.804144682362676,-31.79755249992013 -58.77368,-31.7915388 -58.6559616,-31.7401399 -58.5546171,-31.6669373 -58.53605302982032,-31.650835582986474 -58.4938372,-31.6141754 -58.449305444955826,-31.580011057667434 -58.4076212,-31.5497732 -58.3493399,-31.5393247 -58.2778063,-31.5264515 -58.13889440149069,-31.45757659804076 -58.1122449,-31.4325408 -58.0988682,-31.3957588 -58.097261153161526,-31.37021034490317 -58.0959374,-31.363736 -58.07773685082793,-31.285557984374464 -58.0750696,-31.2523926 -58.07141278870404,-31.13141897600144 -58.0750806,-31.0246594 -58.0428138,-30.9104513 -58.03660190664232,-30.905040367506444 -58.0439364,-30.8942236 -58.0438875,-30.8955761 -58.0439332,-30.8942235 -58.0440864,-30.8956445 -58.04385828785598,-30.89473749976605 -58.0205231,-30.7618717 -58.01122519187629,-30.678340229205787 -58.0005476,-30.6510929 -57.9791672,-30.5552372 -57.9848801,-30.4633838 -57.9848303,-30.4483101 -57.967500910162926,-30.229283245280385 -57.96806450933218,-30.198041587136686 -57.9957826,-30.1062123 -57.99618998542428,-30.10457791853696 -57.9986435,-30.0943486 -57.9050391,-30.0600386 -57.7758115,-30.0449059 -57.768922643736005,-30.040215840563178 -57.6818215,-29.9686033 -57.5902437,-29.8917458 -57.57688846439123,-29.901621574535966 -57.5746198,-29.9058621 -57.5757096,-29.9074301 -57.5722582,-29.9053609 -57.5738448,-29.9067849 -57.5747345,-29.9051458 -57.573851,-29.906919 -57.5736809,-29.9054999 -57.5754346,-29.9067467 -57.5749536,-29.9054302 -57.5757975,-29.9073733 -57.5746241,-29.9059074 -57.5732293,-29.9069108 -57.5744603946805,-29.90593812894076 -57.5759756,-29.9071856 -57.574601797387004,-29.905748991295695 -57.31293168850243,-29.743235330097377 -57.1110077,-29.7248649 -57.10113197565079,-29.73468394484371 -57.09240457043052,-29.743895698338747 -57.0833203,-29.748026 -57.0194929,-29.786632 -57.0035989,-29.8096752 -56.93631023168564,-29.843271290883422 -56.8960417,-29.8617948 -56.7746621,-29.8788362 -56.68310106731951,-29.90723753347993 -56.6542541,-29.9178881 -56.5535644,-29.9731479 -56.4558389224112,-30.00877142418176 -56.3339323,-30.0080525 -56.32448460906744,-30.009680693037808 -56.2120716,-30.0136711 -56.1471048,-29.9779088 -56.0900495,-29.9453473 -56.027703545987606,-29.902783390134573 -55.732968505471945,-29.816647097468376 -55.7207392,-29.8219285 -55.639880849048495,-29.765435471199453 -55.47757979482412,-29.585647378116846 -55.4789949,-29.5839764 -55.4787844,-29.5953324 -55.4836311,-29.5878169 -55.479363799095154,-29.59551317151636 -55.4836311,-29.5878169 -55.4801728,-29.5841017 -55.480177,-29.5841022 -55.479851458221674,-29.595443685539067 -55.4801728,-29.5841017 -55.480177,-29.5841022 -55.47970963642001,-29.595363847911358 -55.4797389,-29.595397 -55.480177,-29.5841022 -55.47848294489086,-29.581106691621244 -55.42829470708966,-29.58612954709679 -55.4140074,-29.5890037 -55.41401093825698,-29.58900349214673 -55.2530116,-29.5828648 -55.223543420434,-29.59348055999726 -55.0862978,-29.6004267 -55.0250036,-29.6342307 -54.9329676,-29.6869691 -54.75708824582398,-29.71462144050747 -54.6767839,-29.6870826 -54.6751543,-29.6862093 -54.64818670414388,-29.683131049387157 -54.57106690853834,-29.654332464560866 -54.5369883,-29.6504401 -54.50567716732621,-29.615927045233548 -54.49757329188287,-29.6044035628438 -54.4898022,-29.5932216 -54.454848,-29.5640196 -54.45441805757582,-29.564153621904552 -54.4555355,-29.5654193 -54.4613449,-29.5582368 -54.4602524,-29.5592137 -54.4351625,-29.5781522 -54.420708976686,-29.57948814611882 -54.4222549,-29.5807616 -54.43264866247773,-29.57959681749344 -54.4502473,-29.5678918 -54.4614228,-29.5620245 -54.4830666,-29.5811112 -54.5090053,-29.6580308 -54.43674095906317,-29.655004106462002 -54.4114742,-29.6490481 -54.3037099,-29.6383271 -54.297498017549515,-29.637703481130302 -54.0940476,-29.6660661 -54.07421853393316,-29.66711511835456 -53.99301557801664,-29.673049170523882 -53.979833,-29.6740223 -53.8661715,-29.6923931 -53.84375181980431,-29.699007757008076 -53.83791206404567,-29.701369148679078 -53.8376052,-29.6990701 -53.83805681951344,-29.701465289108455 -53.8378643,-29.6996485 -53.8368246,-29.7027723 -53.83801683783531,-29.70129911787808 -53.8381092,-29.6993564 -53.83787887170911,-29.70137367490679 -53.8376549,-29.6988875 -53.83794508874416,-29.70139915589243 -53.8379451,-29.7013992 -53.8381092,-29.6993564 -53.83797828108072,-29.701368184760213 -53.83800267241895,-29.70139865297824 -53.8371829,-29.7025724 -53.8374893,-29.7007112 -53.8372433,-29.6986197 -53.83652,-29.7029329 -53.83795405738056,-29.70134048257023 -53.8377695,-29.6996933 -53.8380375,-29.7011411 -53.8381092,-29.6993564 -53.83797895163298,-29.70137116033584 -53.7167355,-29.702169 -53.68305564858019,-29.704422717913985 -53.66727855987847,-29.709116332232952 -53.667144952341914,-29.7090931981802 -53.65140256471932,-29.711943715810776 -53.6021279,-29.7223576 -53.4964352,-29.7355963 -53.3857036,-29.7232026 -53.25643957592547,-29.713726337067783 -53.09299807995558,-29.745061034336686 -52.9832672,-29.7476225 -52.8903385,-29.7121281 -52.769967913627625,-29.673458584584296 -52.6712315,-29.6946435 -52.44666927494109,-29.687334070913494 -52.17136130668223,-29.64183554984629 -52.094523,-29.6543969 -52.091484954580665,-29.6547762863338 -51.97636479511857,-29.68794004060328 -51.8329084,-29.6981358 -51.810628501698375,-29.696231461130083 -51.722683,-29.6906606 -51.7242472,-29.6903142 -51.7264003,-29.6906537 -51.7223432,-29.6904857 -51.7242228,-29.6900554 -51.722514582797885,-29.690733100287616 -51.7232387,-29.6906433 -51.6552059,-29.7047229 -51.5636836,-29.6908291 -51.526551973074675,-29.688936271704733 -51.4701181,-29.6841324 -51.4006449,-29.6726208 -51.35347950272262,-29.664901793003082 -51.3031397,-29.6692767 -51.29028707742691,-29.66720312833786 -51.2299705,-29.6938569 -51.1503097,-29.730012 -51.14722684957087,-29.70989308319986 -51.1273074,-29.6617045 -51.06888,-29.6742125 -51.0675485,-29.6764007</coordinates></LineString></Placemark></Document></kml>